[{"OBJECT_NAME":"STARLINK-4403","OBJECT_ID":"2022-084J","EPOCH":"2026-03-09T16:50:05.021664","MEAN_MOTION":15.01260769,"ECCENTRICITY":0.00034307,"INCLINATION":97.6019,"RA_OF_ASC_NODE":130.2204,"ARG_OF_PERICENTER":69.6023,"MEAN_ANOMALY":290.5569,"EPHEMERIS_TYPE":0,"CLASSIFICATION_TYPE":"U","NORAD_CAT_ID":53197,"ELEMENT_SET_NO":999,"REV_AT_EPOCH":19931,"BSTAR":3.9295029e-5,"MEAN_MOTION_DOT":4.46e-6,"MEAN_MOTION_DDOT":0},{"OBJECT_NAME":"FENGYUN 1C DEB","OBJECT_ID":"1999-025EB","EPOCH":"2026-03-09T21:27:48.971520","MEAN_MOTION":14.9364801,"ECCENTRICITY":0.00856057,"INCLINATION":99.085,"RA_OF_ASC_NODE":69.4314,"ARG_OF_PERICENTER":339.4426,"MEAN_ANOMALY":20.3352,"EPHEMERIS_TYPE":0,"CLASSIFICATION_TYPE":"U","NORAD_CAT_ID":29833,"ELEMENT_SET_NO":999,"REV_AT_EPOCH":1871,"BSTAR":0.0015409165,"MEAN_MOTION_DOT":0.00017454,"MEAN_MOTION_DDOT":0}]
